[
    {
        "Altitude(m)": 617710.6570477703,
        "Argument of Periapsis(deg)": 0.0,
        "Eccentricity": 0.0,
        "Inclination(deg)": 60.0,
        "Latitude(deg)": -41.10270721169856,
        "Longitude(deg)": 19.96674947954614,
        "Mean Anomaly(deg)": -49.09089999999992,
        "RAAN(deg)": 150.0,
        "Satellite Name": "Test1 679",
        "Satellite Number": 679,
        "Semi-Major Axis(m)": 6980739.136638005,
        "Time(s)": 0
    },
    {
        "Altitude(m)": 617517.9550582179,
        "Argument of Periapsis(deg)": 0.00010418945913296404,
        "Eccentricity": 0.0,
        "Inclination(deg)": 60.0,
        "Latitude(deg)": -40.636912973383225,
        "Longitude(deg)": 20.463541483285713,
        "Mean Anomaly(deg)": -48.470793854538066,
        "RAAN(deg)": 149.99957995086027,
        "Satellite Name": "Test1 679",
        "Satellite Number": 679,
        "Semi-Major Axis(m)": 6980739.136638005,
        "Time(s)": 10
    }
]